NORAD_CAT_ID,OBJECT_NAME,OBJECT_TYPE,EPOCH,MEAN_MOTION,ECCENTRICITY,INCLINATION,RA_OF_ASC_NODE,ARG_OF_PERICENTER,MEAN_ANOMALY,BSTAR,MEAN_MOTION_DOT,MEAN_MOTION_DDOT,TLE_LINE0,TLE_LINE1,TLE_LINE2,SEMIMAJOR_AXIS,PERIOD,APOGEE,PERIGEE,DECAYED
55314.0,STARLINK-5305,PAYLOAD,2023-12-19 20:12:22,14.98329308,0.000235,70.0008,248.9498,263.5202,96.569,-6.6515e-05,-8.86e-06,0.0,0 STARLINK-5305,1 55314U 23010AX  23353.84192224 -.00000886  00000-0 -66515-4 0  9993,2 55314  70.0008 248.9498 0002350 263.5202  96.5690 14.98329308 51995,6950.195,96.107,573.693,570.427,0.0
55314.0,STARLINK-5305,PAYLOAD,2023-12-20 02:36:54,14.98321693,0.0002556,69.9999,248.2739,268.8257,91.2609,0.00018269,2.087e-05,0.0,0 STARLINK-5305,1 55314U 23010AX  23354.10896012  .00002087  00000-0  18269-3 0  9994,2 55314  69.9999 248.2739 0002556 268.8257  91.2609 14.98321693 53227,6950.219,96.108,573.86,570.307,0.0
55314.0,STARLINK-5305,PAYLOAD,2023-12-20 20:14:22,14.98327763,0.0002183,70.0,246.4225,250.8156,109.2767,0.00011788,1.314e-05,0.0,0 STARLINK-5305,1 55314U 23010AX  23354.84331679  .00001314  00000-0  11788-3 0  9999,2 55314  70.0000 246.4225 0002183 250.8156 109.2767 14.98327763 52147,6950.2,96.107,573.582,570.548,0.0
55314.0,STARLINK-5305,PAYLOAD,2023-12-20 21:50:30,14.98327034,0.0002348,69.9999,246.2544,259.557,100.5324,0.00011491,1.278e-05,0.0,0 STARLINK-5305,1 55314U 23010AX  23354.91007812  .00001278  00000-0  11491-3 0  9996,2 55314  69.9999 246.2544 0002348 259.5570 100.5324 14.98327034 53349,6950.202,96.107,573.699,570.435,0.0
55314.0,STARLINK-5305,PAYLOAD,2023-12-21 02:38:54,14.98329323,0.000222,70.0001,245.7498,251.9602,108.1315,0.00013293,1.493e-05,0.0,0 STARLINK-5305,1 55314U 23010AX  23355.11035606  .00001493  00000-0  13293-3 0  9992,2 55314  70.0001 245.7498 0002220 251.9602 108.1315 14.98329323 53379,6950.195,96.107,573.603,570.517,0.0
55314.0,STARLINK-5305,PAYLOAD,2023-12-21 21:52:31,14.98329254,0.0002641,70.0,243.7328,240.6323,119.4573,-5.6833e-05,-7.71e-06,0.0,0 STARLINK-5305,1 55314U 23010AX  23355.91148006 -.00000771  00000-0 -56833-4 0  9997,2 55314  70.0000 243.7328 0002641 240.6323 119.4573 14.98329254 53497,6950.195,96.107,573.896,570.225,0.0
55314.0,STARLINK-5305,PAYLOAD,2023-12-22 02:40:58,14.98292162,0.0002475,69.9998,243.225,251.1045,108.9846,-0.00043374,-5.259e-05,0.0,0 STARLINK-5305,1 55314U 23010AX  23356.11179270 -.00005259  00000-0 -43374-3 0  9998,2 55314  69.9998 243.2250 0002475 251.1045 108.9846 14.98292162 52337,6950.31,96.109,573.895,570.455,0.0
55314.0,STARLINK-5305,PAYLOAD,2023-12-22 20:18:25,14.9833172,0.000249,69.9998,241.3737,234.5511,125.5416,1.5742e-05,9.5e-07,0.0,0 STARLINK-5305,1 55314U 23010AX  23356.84613038  .00000095  00000-0  15742-4 0  9993,2 55314  69.9998 241.3737 0002490 234.5511 125.5416 14.98331720 52440,6950.188,96.107,573.783,570.322,0.0
55314.0,STARLINK-5305,PAYLOAD,2023-12-22 21:54:33,14.98329304,0.0002382,70.0008,241.2059,223.0978,136.9995,2.8394e-05,2.46e-06,0.0,0 STARLINK-5305,1 55314U 23010AX  23356.91289166  .00000246  00000-0  28394-4 0  9997,2 55314  70.0008 241.2059 0002382 223.0978 136.9995 14.98329304 53647,6950.195,96.107,573.716,570.405,0.0
55314.0,STARLINK-5305,PAYLOAD,2023-12-23 02:42:57,14.9833316,0.0002408,69.9993,240.6982,254.4955,105.5938,3.4238e-05,3.16e-06,0.0,0 STARLINK-5305,1 55314U 23010AX  23357.11316991  .00000316  00000-0  34238-4 0  9999,2 55314  69.9993 240.6982 0002408 254.4955 105.5938 14.98333160 53674,6950.183,96.107,573.722,570.375,0.0
55314.0,STARLINK-5305,PAYLOAD,2023-12-23 18:44:17,14.98342992,0.0002866,69.998,239.0129,272.9434,87.1397,0.00026997,3.131e-05,0.0,0 STARLINK-5305,1 55314U 23010AX  23357.78075495  .00003131  00000-0  26997-3 0  9993,2 55314  69.9980 239.0129 0002866 272.9434  87.1397 14.98342992 52586,6950.153,96.106,574.01,570.026,0.0
55314.0,STARLINK-5305,PAYLOAD,2023-12-23 21:56:33,14.98343364,0.000306,69.9981,238.6756,282.6455,77.4361,0.00025044,2.897e-05,0.0,0 STARLINK-5305,1 55314U 23010AX  23357.91427391  .00002897  00000-0  25044-3 0  9994,2 55314  69.9981 238.6756 0003060 282.6455  77.4361 14.98343364 53797,6950.152,96.106,574.143,569.89,0.0
55314.0,STARLINK-5305,PAYLOAD,2023-12-24 02:44:56,14.98351986,0.0002673,69.9983,238.1724,263.3977,96.6878,0.0003364,3.925e-05,0.0,0 STARLINK-5305,1 55314U 23010AX  23358.11454378  .00003925  00000-0  33640-3 0  9996,2 55314  69.9983 238.1724 0002673 263.3977  96.6878 14.98351986 52630,6950.125,96.106,573.848,570.132,0.0
55314.0,STARLINK-5305,PAYLOAD,2023-12-24 20:22:25,14.98356645,0.0002271,70.0007,236.3243,246.0093,114.0829,0.00017433,1.989e-05,0.0,0 STARLINK-5305,1 55314U 23010AX  23358.84890250  .00001989  00000-0  17433-3 0  9999,2 55314  70.0007 236.3243 0002271 246.0093 114.0829 14.98356645 52747,6950.11,96.105,573.554,570.397,0.0
55314.0,STARLINK-5305,PAYLOAD,2023-12-24 21:58:34,14.98339489,0.0002059,69.9995,236.1494,260.6963,99.3964,-6.1709e-06,-1.67e-06,0.0,0 STARLINK-5305,1 55314U 23010AX  23358.91567517 -.00000167  00000-0 -61709-5 0  9990,2 55314  69.9995 236.1494 0002059 260.6963  99.3964 14.98339489 53943,6950.164,96.106,573.46,570.598,0.0
55314.0,STARLINK-5305,PAYLOAD,2023-12-25 01:10:51,14.98329406,0.000232,69.9996,235.8152,274.7983,85.2911,-0.00010518,-1.348e-05,0.0,0 STARLINK-5305,1 55314U 23010AX  23359.04920590 -.00001348  00000-0 -10518-3 0  9991,2 55314  69.9996 235.8152 0002320 274.7983  85.2911 14.98329406 52774,6950.195,96.107,573.672,570.447,0.0
55314.0,STARLINK-5305,PAYLOAD,2023-12-25 22:00:35,14.98335255,0.000231,69.9995,233.6288,254.366,105.7244,-0.00027794,-3.408e-05,0.0,0 STARLINK-5305,1 55314U 23010AX  23359.91708115 -.00003408  00000-0 -27794-3 0  9997,2 55314  69.9995 233.6288 0002310 254.3660 105.7244 14.98335255 54097,6950.177,96.107,573.647,570.436,0.0
55314.0,STARLINK-5305,PAYLOAD,2023-12-26 01:12:51,14.98335709,0.0002413,69.9989,233.2911,266.606,93.4823,-0.00026643,-3.271e-05,0.0,0 STARLINK-5305,1 55314U 23010AX  23360.05060043 -.00003271  00000-0 -26643-3 0  9995,2 55314  69.9989 233.2911 0002413 266.6060  93.4823 14.98335709 52923,6950.175,96.107,573.717,570.363,0.0
55314.0,STARLINK-5305,PAYLOAD,2023-12-26 20:26:28,14.98343705,0.0002733,69.9983,231.27,272.2756,87.809,-0.00031054,-3.798e-05,0.0,0 STARLINK-5305,1 55314U 23010AX  23360.85171373 -.00003798  00000-0 -31054-3 0  9998,2 55314  69.9983 231.2700 0002733 272.2756  87.8090 14.98343705 53043,6950.151,96.106,573.915,570.116,0.0
55314.0,STARLINK-5305,PAYLOAD,2023-12-26 22:02:36,14.98339565,0.000268,69.9982,231.1024,269.9961,90.0891,-0.00024433,-3.008e-05,0.0,0 STARLINK-5305,1 55314U 23010AX  23360.91847409 -.00003008  00000-0 -24433-3 0  9992,2 55314  69.9982 231.1024 0002680 269.9961  90.0891 14.98339565 54249,6950.163,96.106,573.891,570.166,0.0
55314.0,STARLINK-5305,PAYLOAD,2023-12-27 01:14:51,14.98346663,0.0002591,69.9984,230.7652,271.2955,88.7907,-0.00027906,-3.422e-05,0.0,0 STARLINK-5305,1 55314U 23010AX  23361.05198960 -.00003422  00000-0 -27906-3 0  9997,2 55314  69.9984 230.7652 0002591 271.2955  88.7907 14.98346663 54264,6950.141,96.106,573.807,570.206,0.0
55314.0,STARLINK-5305,PAYLOAD,2023-12-27 18:52:21,14.98324971,0.0002711,69.9983,228.9135,270.2685,89.8163,5.2522e-05,5.34e-06,0.0,0 STARLINK-5305,1 55314U 23010AX  23361.78635761  .00000534  00000-0  52522-4 0  9994,2 55314  69.9983 228.9135 0002711 270.2685  89.8163 14.98324971 53185,6950.208,96.107,573.958,570.189,0.0
55314.0,STARLINK-5305,PAYLOAD,2023-12-27 22:04:37,14.98325508,0.0002698,69.9983,228.577,270.3142,89.7708,5.8154e-05,6.01e-06,0.0,0 STARLINK-5305,1 55314U 23010AX  23361.91987749  .00000601  00000-0  58154-4 0  9997,2 55314  69.9983 228.5770 0002698 270.3142  89.7708 14.98325508 54394,6950.207,96.107,573.947,570.197,0.0
55314.0,STARLINK-5305,PAYLOAD,2023-12-28 01:16:53,14.98325047,0.0002575,69.9984,228.2397,269.5927,90.4937,0.00013558,1.525e-05,0.0,0 STARLINK-5305,1 55314U 23010AX  23362.05339607  .00001525  00000-0  13558-3 0  9991,2 55314  69.9984 228.2397 0002575 269.5927  90.4937 14.98325047 54416,6950.208,96.107,573.863,570.284,0.0
55314.0,STARLINK-5305,PAYLOAD,2023-12-28 18:54:22,14.98329173,0.000253,69.9986,226.3881,265.2651,94.8219,1.1412e-06,-7.9e-07,0.0,0 STARLINK-5305,1 55314U 23010AX  23362.78775745 -.00000079  00000-0  11412-5 0  9991,2 55314  69.9986 226.3881 0002530 265.2651  94.8219 14.98329173 53338,6950.195,96.107,573.819,570.302,0.0
55314.0,STARLINK-5305,PAYLOAD,2023-12-28 22:06:38,14.98329379,0.0002673,69.9985,226.0527,262.0169,98.0687,-6.6116e-06,-1.72e-06,0.0,0 STARLINK-5305,1 55314U 23010AX  23362.92127715 -.00000172  00000-0 -66116-5 0  9991,2 55314  69.9985 226.0527 0002673 262.0169  98.0687 14.98329379 54545,6950.195,96.107,573.918,570.202,0.0
55314.0,STARLINK-5305,PAYLOAD,2023-12-29 01:18:54,14.98330346,0.0002659,69.9986,225.7163,264.5299,95.5557,8.2718e-06,6e-08,0.0,0 STARLINK-5305,1 55314U 23010AX  23363.05479627  .00000006  00000-0  82718-5 0  9998,2 55314  69.9986 225.7163 0002659 264.5299  95.5557 14.98330346 54569,6950.192,96.107,573.905,570.209,0.0
55314.0,STARLINK-5305,PAYLOAD,2023-12-29 18:56:23,14.98329126,0.0002505,69.9995,223.8648,261.7978,98.2897,2.5382e-05,2.1e-06,0.0,0 STARLINK-5305,1 55314U 23010AX  23363.78915654  .00000210  00000-0  25382-4 0  9993,2 55314  69.9995 223.8648 0002505 261.7978  98.2897 14.98329126 53480,6950.196,96.107,573.802,570.32,0.0
55314.0,STARLINK-5305,PAYLOAD,2023-12-29 22:08:39,14.98330034,0.0002449,69.9995,223.5281,256.774,103.3146,3.2834e-05,2.99e-06,0.0,0 STARLINK-5305,1 55314U 23010AX  23363.92267550  .00000299  00000-0  32834-4 0  9991,2 55314  69.9995 223.5281 0002449 256.7740 103.3146 14.98330034 54697,6950.193,96.107,573.76,570.356,0.0
55314.0,STARLINK-5305,PAYLOAD,2023-12-30 14:09:59,14.98329622,0.0002483,69.9994,221.8458,271.1076,88.9798,5.0599e-05,5.11e-06,0.0,0 STARLINK-5305,1 55314U 23010AX  23364.59027485  .00000511  00000-0  50599-4 0  9991,2 55314  69.9994 221.8458 0002483 271.1076  88.9798 14.98329622 54797,6950.194,96.107,573.785,570.333,0.0
